[{"OBJECT_NAME":"TIANMU-1 10","OBJECT_ID":"2023-101D","EPOCH":"2026-04-26T22:10:07.421664","MEAN_MOTION":15.2933198,"ECCENTRICITY":0.00028288,"INCLINATION":97.2667,"RA_OF_ASC_NODE":168.9967,"ARG_OF_PERICENTER":337.1253,"MEAN_ANOMALY":22.9861,"EPHEMERIS_TYPE":0,"CLASSIFICATION_TYPE":"U","NORAD_CAT_ID":57402,"ELEMENT_SET_NO":999,"REV_AT_EPOCH":15380,"BSTAR":0.00023736869,"MEAN_MOTION_DOT":6.68e-5,"MEAN_MOTION_DDOT":0},{"OBJECT_NAME":"FENGYUN 3F","OBJECT_ID":"2023-111A","EPOCH":"2026-04-26T21:16:52.079232","MEAN_MOTION":14.19929786,"ECCENTRICITY":9.053e-5,"INCLINATION":98.6854,"RA_OF_ASC_NODE":187.8457,"ARG_OF_PERICENTER":113.1465,"MEAN_ANOMALY":246.9807,"EPHEMERIS_TYPE":0,"CLASSIFICATION_TYPE":"U","NORAD_CAT_ID":57490,"ELEMENT_SET_NO":999,"REV_AT_EPOCH":14158,"BSTAR":4.9682008e-5,"MEAN_MOTION_DOT":6.2e-7,"MEAN_MOTION_DDOT":0},{"OBJECT_NAME":"ARKTIKA-M 2","OBJECT_ID":"2023-198A","EPOCH":"2026-04-20T22:18:36.192384","MEAN_MOTION":2.00586979,"ECCENTRICITY":0.69533035,"INCLINATION":63.2192,"RA_OF_ASC_NODE":160.7194,"ARG_OF_PERICENTER":267.0904,"MEAN_ANOMALY":18.471,"EPHEMERIS_TYPE":0,"CLASSIFICATION_TYPE":"U","NORAD_CAT_ID":58584,"ELEMENT_SET_NO":999,"REV_AT_EPOCH":1717,"BSTAR":0,"MEAN_MOTION_DOT":2.17e-6,"MEAN_MOTION_DDOT":0},{"OBJECT_NAME":"TIANMU-1 11","OBJECT_ID":"2023-205A","EPOCH":"2026-04-26T23:54:23.632704","MEAN_MOTION":15.26454205,"ECCENTRICITY":0.00091858,"INCLINATION":97.3487,"RA_OF_ASC_NODE":139.3694,"ARG_OF_PERICENTER":173.3423,"MEAN_ANOMALY":186.794,"EPHEMERIS_TYPE":0,"CLASSIFICATION_TYPE":"U","NORAD_CAT_ID":58645,"ELEMENT_SET_NO":999,"REV_AT_EPOCH":12971,"BSTAR":0.00023290904,"MEAN_MOTION_DOT":6.005e-5,"MEAN_MOTION_DDOT":0},{"OBJECT_NAME":"TIANMU-1 12","OBJECT_ID":"2023-205B","EPOCH":"2026-04-26T23:09:34.835328","MEAN_MOTION":15.26399422,"ECCENTRICITY":0.00080357,"INCLINATION":97.3476,"RA_OF_ASC_NODE":139.1056,"ARG_OF_PERICENTER":155.3981,"MEAN_ANOMALY":204.7643,"EPHEMERIS_TYPE":0,"CLASSIFICATION_TYPE":"U","NORAD_CAT_ID":58646,"ELEMENT_SET_NO":999,"REV_AT_EPOCH":12969,"BSTAR":0.00023371502,"MEAN_MOTION_DOT":6.015e-5,"MEAN_MOTION_DDOT":0},{"OBJECT_NAME":"TIANMU-1 13","OBJECT_ID":"2023-205C","EPOCH":"2026-04-26T23:51:43.702848","MEAN_MOTION":15.2645346,"ECCENTRICITY":0.00088204,"INCLINATION":97.3504,"RA_OF_ASC_NODE":139.3946,"ARG_OF_PERICENTER":139.7027,"MEAN_ANOMALY":220.4867,"EPHEMERIS_TYPE":0,"CLASSIFICATION_TYPE":"U","NORAD_CAT_ID":58647,"ELEMENT_SET_NO":999,"REV_AT_EPOCH":12969,"BSTAR":0.0002456599,"MEAN_MOTION_DOT":6.338e-5,"MEAN_MOTION_DDOT":0},{"OBJECT_NAME":"TIANMU-1 14","OBJECT_ID":"2023-205D","EPOCH":"2026-04-26T23:30:42.518592","MEAN_MOTION":15.2642487,"ECCENTRICITY":0.0009426,"INCLINATION":97.3438,"RA_OF_ASC_NODE":138.6056,"ARG_OF_PERICENTER":144.2665,"MEAN_ANOMALY":215.9206,"EPHEMERIS_TYPE":0,"CLASSIFICATION_TYPE":"U","NORAD_CAT_ID":58648,"ELEMENT_SET_NO":999,"REV_AT_EPOCH":12969,"BSTAR":0.0002362348,"MEAN_MOTION_DOT":6.087e-5,"MEAN_MOTION_DDOT":0},{"OBJECT_NAME":"TIANMU-1 19","OBJECT_ID":"2023-208A","EPOCH":"2026-04-26T22:05:22.324992","MEAN_MOTION":15.30759244,"ECCENTRICITY":0.00063158,"INCLINATION":97.4438,"RA_OF_ASC_NODE":233.0088,"ARG_OF_PERICENTER":130.6687,"MEAN_ANOMALY":229.5104,"EPHEMERIS_TYPE":0,"CLASSIFICATION_TYPE":"U","NORAD_CAT_ID":58660,"ELEMENT_SET_NO":999,"REV_AT_EPOCH":12948,"BSTAR":0.00033203946,"MEAN_MOTION_DOT":9.802e-5,"MEAN_MOTION_DDOT":0},{"OBJECT_NAME":"TIANMU-1 20","OBJECT_ID":"2023-208B","EPOCH":"2026-04-26T22:23:06.473184","MEAN_MOTION":15.31947499,"ECCENTRICITY":0.00083406,"INCLINATION":97.4379,"RA_OF_ASC_NODE":233.6035,"ARG_OF_PERICENTER":139.609,"MEAN_ANOMALY":220.5772,"EPHEMERIS_TYPE":0,"CLASSIFICATION_TYPE":"U","NORAD_CAT_ID":58661,"ELEMENT_SET_NO":999,"REV_AT_EPOCH":12957,"BSTAR":0.00032289009,"MEAN_MOTION_DOT":9.894e-5,"MEAN_MOTION_DDOT":0},{"OBJECT_NAME":"TIANMU-1 21","OBJECT_ID":"2023-208C","EPOCH":"2026-04-26T22:20:05.149824","MEAN_MOTION":15.34118053,"ECCENTRICITY":0.00083104,"INCLINATION":97.4437,"RA_OF_ASC_NODE":236.0669,"ARG_OF_PERICENTER":134.5021,"MEAN_ANOMALY":225.6902,"EPHEMERIS_TYPE":0,"CLASSIFICATION_TYPE":"U","NORAD_CAT_ID":58662,"ELEMENT_SET_NO":999,"REV_AT_EPOCH":12970,"BSTAR":0.00036099633,"MEAN_MOTION_DOT":0.00011857,"MEAN_MOTION_DDOT":0},{"OBJECT_NAME":"TIANMU-1 22","OBJECT_ID":"2023-208D","EPOCH":"2026-04-26T21:15:41.886144","MEAN_MOTION":15.30302234,"ECCENTRICITY":0.00046885,"INCLINATION":97.4434,"RA_OF_ASC_NODE":232.9512,"ARG_OF_PERICENTER":146.5069,"MEAN_ANOMALY":213.6469,"EPHEMERIS_TYPE":0,"CLASSIFICATION_TYPE":"U","NORAD_CAT_ID":58663,"ELEMENT_SET_NO":999,"REV_AT_EPOCH":12948,"BSTAR":0.00030169185,"MEAN_MOTION_DOT":8.77e-5,"MEAN_MOTION_DDOT":0},{"OBJECT_NAME":"TIANMU-1 15","OBJECT_ID":"2024-004A","EPOCH":"2026-04-26T23:26:22.644672","MEAN_MOTION":15.26465416,"ECCENTRICITY":0.00076159,"INCLINATION":97.4679,"RA_OF_ASC_NODE":303.1757,"ARG_OF_PERICENTER":158.3346,"MEAN_ANOMALY":201.8216,"EPHEMERIS_TYPE":0,"CLASSIFICATION_TYPE":"U","NORAD_CAT_ID":58700,"ELEMENT_SET_NO":999,"REV_AT_EPOCH":12796,"BSTAR":0.00025398192,"MEAN_MOTION_DOT":6.554e-5,"MEAN_MOTION_DDOT":0},{"OBJECT_NAME":"TIANMU-1 16","OBJECT_ID":"2024-004B","EPOCH":"2026-04-26T21:26:31.856064","MEAN_MOTION":15.26502265,"ECCENTRICITY":0.00060011,"INCLINATION":97.4624,"RA_OF_ASC_NODE":302.3824,"ARG_OF_PERICENTER":158.3414,"MEAN_ANOMALY":201.8079,"EPHEMERIS_TYPE":0,"CLASSIFICATION_TYPE":"U","NORAD_CAT_ID":58701,"ELEMENT_SET_NO":999,"REV_AT_EPOCH":12795,"BSTAR":0.00024792723,"MEAN_MOTION_DOT":6.401e-5,"MEAN_MOTION_DDOT":0},{"OBJECT_NAME":"TIANMU-1 17","OBJECT_ID":"2024-004C","EPOCH":"2026-04-26T22:38:01.497696","MEAN_MOTION":15.26350575,"ECCENTRICITY":0.00057924,"INCLINATION":97.4653,"RA_OF_ASC_NODE":302.9006,"ARG_OF_PERICENTER":162.8967,"MEAN_ANOMALY":197.2467,"EPHEMERIS_TYPE":0,"CLASSIFICATION_TYPE":"U","NORAD_CAT_ID":58702,"ELEMENT_SET_NO":999,"REV_AT_EPOCH":12795,"BSTAR":0.00025624394,"MEAN_MOTION_DOT":6.588e-5,"MEAN_MOTION_DDOT":0},{"OBJECT_NAME":"TIANMU-1 18","OBJECT_ID":"2024-004D","EPOCH":"2026-04-26T22:15:24.926976","MEAN_MOTION":15.26463982,"ECCENTRICITY":0.00046947,"INCLINATION":97.4671,"RA_OF_ASC_NODE":303.11,"ARG_OF_PERICENTER":154.1623,"MEAN_ANOMALY":205.9851,"EPHEMERIS_TYPE":0,"CLASSIFICATION_TYPE":"U","NORAD_CAT_ID":58703,"ELEMENT_SET_NO":999,"REV_AT_EPOCH":12795,"BSTAR":0.00026265099,"MEAN_MOTION_DOT":6.777e-5,"MEAN_MOTION_DDOT":0},{"OBJECT_NAME":"INSAT-3DS","OBJECT_ID":"2024-033A","EPOCH":"2026-04-26T18:22:38.701344","MEAN_MOTION":1.00270692,"ECCENTRICITY":0.00019347,"INCLINATION":0.0919,"RA_OF_ASC_NODE":86.7261,"ARG_OF_PERICENTER":299.8544,"MEAN_ANOMALY":185.9109,"EPHEMERIS_TYPE":0,"CLASSIFICATION_TYPE":"U","NORAD_CAT_ID":58990,"ELEMENT_SET_NO":999,"REV_AT_EPOCH":4655,"BSTAR":0,"MEAN_MOTION_DOT":-1.67e-6,"MEAN_MOTION_DDOT":0},{"OBJECT_NAME":"METEOR-M2 4","OBJECT_ID":"2024-039A","EPOCH":"2026-04-26T23:23:04.088832","MEAN_MOTION":14.22424011,"ECCENTRICITY":0.00064292,"INCLINATION":98.698,"RA_OF_ASC_NODE":76.9273,"ARG_OF_PERICENTER":326.5441,"MEAN_ANOMALY":33.533,"EPHEMERIS_TYPE":0,"CLASSIFICATION_TYPE":"U","NORAD_CAT_ID":59051,"ELEMENT_SET_NO":999,"REV_AT_EPOCH":11198,"BSTAR":3.164039e-5,"MEAN_MOTION_DOT":2.7e-7,"MEAN_MOTION_DDOT":0}]
