TIANMU-1 10             
1 57402U 23101D   26116.92369701  .00006680  00000+0  23737-3 0  9992
2 57402  97.2667 168.9967 0002828 337.1253  22.9861 15.29331980153803
FENGYUN 3F              
1 57490U 23111A   26116.88671388  .00000062  00000+0  49682-4 0  9998
2 57490  98.6854 187.8457 0000905 113.1465 246.9807 14.19929786141583
ARKTIKA-M 2             
1 58584U 23198A   26110.92958556  .00000217  00000+0  00000+0 0  9990
2 58584  63.2192 160.7194 6953303 267.0904  18.4710  2.00586979 17173
TIANMU-1 11             
1 58645U 23205A   26116.99610686  .00006005  00000+0  23291-3 0  9991
2 58645  97.3487 139.3694 0009185 173.3423 186.7940 15.26454205129718
TIANMU-1 12             
1 58646U 23205B   26116.96498652  .00006015  00000+0  23372-3 0  9997
2 58646  97.3476 139.1056 0008035 155.3981 204.7643 15.26399422129696
TIANMU-1 13             
1 58647U 23205C   26116.99425582  .00006338  00000+0  24566-3 0  9997
2 58647  97.3504 139.3946 0008820 139.7027 220.4867 15.26453460129694
TIANMU-1 14             
1 58648U 23205D   26116.97965878  .00006087  00000+0  23623-3 0  9997
2 58648  97.3438 138.6056 0009426 144.2665 215.9206 15.26424870129696
TIANMU-1 19             
1 58660U 23208A   26116.92039728  .00009802  00000+0  33204-3 0  9999
2 58660  97.4438 233.0088 0006315 130.6687 229.5104 15.30759244129489
TIANMU-1 20             
1 58661U 23208B   26116.93271381  .00009894  00000+0  32289-3 0  9997
2 58661  97.4379 233.6035 0008340 139.6090 220.5772 15.31947499129573
TIANMU-1 21             
1 58662U 23208C   26116.93061516  .00011857  00000+0  36100-3 0  9993
2 58662  97.4437 236.0669 0008310 134.5021 225.6902 15.34118053129709
TIANMU-1 22             
1 58663U 23208D   26116.88590146  .00008770  00000+0  30169-3 0  9993
2 58663  97.4434 232.9512 0004688 146.5069 213.6469 15.30302234129480
TIANMU-1 15             
1 58700U 24004A   26116.97665098  .00006554  00000+0  25398-3 0  9995
2 58700  97.4679 303.1757 0007615 158.3346 201.8216 15.26465416127964
TIANMU-1 16             
1 58701U 24004B   26116.89342426  .00006401  00000+0  24793-3 0  9993
2 58701  97.4624 302.3824 0006001 158.3414 201.8079 15.26502265127955
TIANMU-1 17             
1 58702U 24004C   26116.94307289  .00006588  00000+0  25624-3 0  9998
2 58702  97.4653 302.9006 0005792 162.8967 197.2467 15.26350575127959
TIANMU-1 18             
1 58703U 24004D   26116.92737184  .00006777  00000+0  26265-3 0  9990
2 58703  97.4671 303.1100 0004694 154.1623 205.9851 15.26463982127952
INSAT-3DS               
1 58990U 24033A   26116.76572571 -.00000167  00000+0  00000+0 0  9992
2 58990   0.0919  86.7261 0001934 299.8544 185.9109  1.00270692 46550
METEOR-M2 4             
1 59051U 24039A   26116.97435288  .00000027  00000+0  31640-4 0  9996
2 59051  98.6980  76.9273 0006429 326.5441  33.5330 14.22424011111980
